1 45123U 19071N   23125.62231602  .00348082  55976-4  11265-2 0  9996
2 45123  51.6251 253.4915 0012246 297.9236  62.0529 15.90166362183048
1 45123U 19071N   23126.56475250  .00461382  92172-4  14324-2 0  9996
2 45123  51.6248 248.5306 0012469 302.3748  57.6050 15.90933312183191
1 45123U 19071N   23126.56475250  .00461382  92172-4  14324-2 0  9996
2 45123  51.6248 248.5306 0012469 302.3748  57.6050 15.90933312182673
1 45123U 19071N   23127.31834760  .00408359  74587-4  12256-2 0  9992
2 45123  51.6249 244.5604 0012649 306.3105  53.6733 15.91597578182790
1 45123U 19071N   23127.56947724  .00422960  79565-4  12545-2 0  9990
2 45123  51.6248 243.2365 0012761 307.5303  52.4543 15.91818036183351
1 45123U 19071N   23127.56947724  .00422960  79565-4  12545-2 0  9990
2 45123  51.6248 243.2365 0012761 307.5303  52.4543 15.91818036182833
1 45123U 19071N   23128.57366328  .00437625  85405-4  12400-2 0  9991
2 45123  51.6240 237.9384 0012981 312.6469  47.3443 15.92682480183511
1 45123U 19071N   23128.57366328  .00437625  85405-4  12400-2 0  9991
2 45123  51.6240 237.9384 0012981 312.6469  47.3443 15.92682480182992
1 45123U 19071N   23129.51456031  .00459615  94339-4  12420-2 0  9998
2 45123  51.6232 232.9672 0013156 317.3891  42.6094 15.93569994183147
1 45123U 19071N   23130.45492447  .00515726  11832-3  13249-2 0  9996
2 45123  51.6232 227.9919 0013126 320.5547  39.4504 15.94507643183296
1 45123U 19071N   23131.45734422  .00523052  12316-3  12675-2 0  9990
2 45123  51.6221 222.6825 0013389 325.9836  34.0312 15.95579581183977
1 45123U 19071N   23131.45734422  .00523052  12316-3  12675-2 0  9990
2 45123  51.6221 222.6825 0013389 325.9836  34.0312 15.95579581183450
1 45123U 19071N   23131.51997337  .00521480  12256-3  12588-2 0  9992
2 45123  51.6222 222.3493 0013629 326.9665  33.0490 15.95644681183985
1 45123U 19071N   23131.51997337  .00521480  12256-3  12588-2 0  9992
2 45123  51.6222 222.3493 0013629 326.9665  33.0490 15.95644681183468
1 45123U 19071N   23131.95830424  .00503184  11515-3  11859-2 0  9991
2 45123  51.6220 220.0254 0013471 328.3690  31.6507 15.96089215184051
1 45123U 19071N   23131.95830424  .00503184  11515-3  11859-2 0  9991
2 45123  51.6220 220.0254 0013471 328.3690  31.6507 15.96089215183533
1 45123U 19071N   23133.46015667  .00575793  15267-3  12337-2 0  9998
2 45123  51.6217 212.0461 0013560 334.7219  25.3125 15.97800632184292
1 45123U 19071N   23133.46015667  .00575793  15267-3  12337-2 0  9998
2 45123  51.6217 212.0461 0013560 334.7219  25.3125 15.97800632183774
1 45123U 19071N   23134.39798544  .00610280  17387-3  12288-2 0  9994
2 45123  51.6214 207.0532 0013554 338.7439  21.3006 15.98902437183923
1 45123U 19071N   23134.58547113  .00578175  15668-3  11498-2 0  9997
2 45123  51.6213 206.0535 0013514 339.5096  20.5369 15.99122760184476
1 45123U 19071N   23134.58547113  .00578175  15668-3  11498-2 0  9997
2 45123  51.6213 206.0535 0013514 339.5096  20.5369 15.99122760183958
1 45123U 19071N   23134.89788888  .00612850  17682-3  11920-2 0  9994
2 45123  51.6210 204.3877 0013523 340.7630  19.2867 15.99510699184000
1 45123U 19071N   23135.46005184  .00605419  17423-3  11319-2 0  9997
2 45123  51.6211 201.3877 0013439 343.1805  16.8757 16.00201303184615
1 45123U 19071N   23135.46005184  .00605419  17423-3  11319-2 0  9997
2 45123  51.6211 201.3877 0013439 343.1805  16.8757 16.00201303184097
1 45123U 19071N   23135.58494374  .00596690  16962-3  11059-2 0  9991
2 45123  51.6211 200.7210 0013412 343.6800  16.3777 16.00353053184639
1 45123U 19071N   23135.58494374  .00596690  16962-3  11059-2 0  9991
2 45123  51.6211 200.7210 0013412 343.6800  16.3777 16.00353053184112
1 45123U 19071N   23136.39645316  .00674611  22050-3  11788-2 0  9999
2 45123  51.6207 196.3849 0013262 346.5195  13.5459 16.01370415184249
1 45123U 19071N   23136.52125537  .00646954  20291-3  11207-2 0  9992
2 45123  51.6207 195.7175 0013231 347.2177  12.8496 16.01518344184785
1 45123U 19071N   23136.52125537  .00646954  20291-3  11207-2 0  9992
2 45123  51.6207 195.7175 0013231 347.2177  12.8496 16.01518344184268
1 45123U 19071N   23137.39451438  .00650700  20876-3  10547-2 0  9999
2 45123  51.6207 191.0433 0012881 350.3375   9.7386 16.02652167184928
1 45123U 19071N   23137.39451438  .00650700  20876-3  10547-2 0  9999
2 45123  51.6207 191.0433 0012881 350.3375   9.7386 16.02652167184401
1 45123U 19071N   23138.14252761  .00676166  22922-3  10334-2 0  9993
2 45123  51.6197 187.0327 0012581 353.2947   6.7894 16.03641926184526
1 45123U 19071N   23138.32945953  .00663034  22097-3  99887-3 0  9999
2 45123  51.6195 186.0294 0012585 353.9052   6.1804 16.03878812185076
1 45123U 19071N   23138.32945953  .00663034  22097-3  99887-3 0  9999
2 45123  51.6195 186.0294 0012585 353.9052   6.1804 16.03878812184558
1 45123U 19071N   23138.82780062  .00693033  24463-3  10021-2 0  9995
2 45123  51.6189 183.3531 0012372 355.6875   4.4029 16.04560761185150
1 45123U 19071N   23138.82780062  .00693033  24463-3  10021-2 0  9995
2 45123  51.6189 183.3531 0012372 355.6875   4.4029 16.04560761184632
1 45123U 19071N   23139.38817162  .00746731  28968-3  10275-2 0  9998
2 45123  51.6188 180.3407 0012032 357.2604   2.8341 16.05382203184724
1 45123U 19071N   23139.51265849  .00761860  30318-3  10357-2 0  9995
2 45123  51.6187 179.6713 0012080 357.8436   2.2522 16.05578469184744
1 45123U 19071N   23139.82381122  .00791244  33120-3  10447-2 0  9995
2 45123  51.6185 177.9961 0011772 358.7004   1.3976 16.06060455185315
1 45123U 19071N   23140.13486549  .00861069  40104-3  11007-2 0  9996
2 45123  51.6183 176.3206 0011550 359.8749   0.2259 16.06595436184841
1 45123U 19071N   23140.32143965  .01042057  61731-3  13011-2 0  9994
2 45123  51.6181 175.3149 0011334   0.0704   0.0308 16.07020241184874
1 45123U 19071N   23140.50796436  .01084581  68170-3  13199-2 0  9990
2 45123  51.6179 174.3088 0011128   1.1595 358.9442 16.07445133185420
1 45123U 19071N   23140.50796436  .01084581  68170-3  13199-2 0  9990
2 45123  51.6179 174.3088 0011128   1.1595 358.9442 16.07445133184902
1 45123U 19071N   23141.12933483  .01154841  81198-3  12796-2 0  9998
2 45123  51.6175 170.9524 0010492   2.3494 357.7567 16.08951982185001
1 45123U 19071N   23141.43980851  .01139210  79805-3  12047-2 0  9997
2 45123  51.6172 169.2728 0010172   2.8887 357.2183 16.09671964185572
1 45123U 19071N   23141.43980851  .01139210  79805-3  12047-2 0  9997
2 45123  51.6172 169.2728 0010172   2.8887 357.2183 16.09671964185055
1 45123U 19071N   23142.06033063  .01310399  11529-2  12591-2 0  9992
2 45123  51.6167 165.9104 0009524   3.5683 356.5398 16.11218901185153
1 45123U 19071N   23142.43233408  .01467760  15715-2  13198-2 0  9998
2 45123  51.6161 163.8903 0009109   3.9121 356.1964 16.12314336185730
1 45123U 19071N   23142.43233408  .01467760  15715-2  13198-2 0  9998
2 45123  51.6161 163.8903 0009109   3.9121 356.1964 16.12314336185213
1 45123U 19071N   23143.42309554  .01640368  22915-2  12101-2 0  9994
2 45123  51.6146 158.4944 0007628   3.0802 357.0260 16.15369758185896
1 45123U 19071N   23143.42309554  .01640368  22915-2  12101-2 0  9994
2 45123  51.6146 158.4944 0007628   3.0802 357.0260 16.15369758185379
1 45123U 19071N   23144.04130787  .01750429  29501-2  11187-2 0  9994
2 45123  51.6139 155.1147 0006706   2.2068 357.8977 16.17533639185478
1 45123U 19071N   23144.41180645  .02080861  11843-4  11187-2 0  9992
2 45123  51.6140 153.0838 0006048 358.0051   2.0942 16.19081468186053
1 45123U 19071N   23144.41180645  .02080861  11843-4  11187-2 0  9992
2 45123  51.6140 153.0838 0006048 358.0051   2.0942 16.19081468185535
1 45123U 19071N   23145.88969455  .03794049  12077-4  10166-2 0  9995
2 45123  51.6114 144.9301 0003612 332.1283  27.9544 16.27508735186292
1 45123U 19071N   23146.01246417  .03872905  12104-4  95221-3 0  9992
2 45123  51.6110 144.2476 0003505 326.3835  33.6963 16.28456228185796
1 45123U 19071N   23146.38025690  .04953940  12207-4  86153-3 0  9998
2 45123  51.6099 142.1967 0003429 308.9280  51.1437 16.32077720186376
1 45123U 19071N   23147.05146081  .11375752  12550-4  32473-3 0  9995
2 45123  51.6068 138.4128 0003454 272.8297  87.2336 16.45338576186487
1 45123U 19071N   23147.05146081  .11375752  12550-4  32473-3 0  9995
2 45123  51.6068 138.4128 0003454 272.8297  87.2336 16.45338576185969
